STARLINK-31213          
1 58860U 24019H   26068.56317980  .00000352  00000+0  22325-4 0  9991
2 58860  43.0024 249.5899 0001359 272.2710  87.7986 15.27576365119066
FLOCK 4G-25             
1 62646U 25009AP  26068.74572546  .00010373  00000+0  38902-3 0  9990
2 62646  97.4049 151.4141 0000828 316.3151  43.8023 15.27424196 63734
